STARLINK-32642          
1 62211U 24229V   26068.55657929  .00029089  00000+0  10623-2 0  9992
2 62211  42.9996 271.2385 0001618 234.8632 125.2068 15.27582698 70548
STARLINK-36554          
1 67502U 26012K   26067.71268370  .00032833  00000+0  11969-2 0  9992
2 67502  42.9934 319.8184 0000695 339.2059  20.8765 15.27591469  7619
